[{"OBJECT_NAME":"WORLDVIEW-2 (WV-2)","OBJECT_ID":"2009-055A","EPOCH":"2026-03-09T22:27:15.689664","MEAN_MOTION":14.37910721,"ECCENTRICITY":0.00050548,"INCLINATION":98.4692,"RA_OF_ASC_NODE":143.7977,"ARG_OF_PERICENTER":144.7175,"MEAN_ANOMALY":215.4347,"EPHEMERIS_TYPE":0,"CLASSIFICATION_TYPE":"U","NORAD_CAT_ID":35946,"ELEMENT_SET_NO":999,"REV_AT_EPOCH":86138,"BSTAR":7.9928144e-5,"MEAN_MOTION_DOT":1.98e-6,"MEAN_MOTION_DDOT":0},{"OBJECT_NAME":"ARIANE 40+ R\/B","OBJECT_ID":"1995-021B","EPOCH":"2026-03-09T19:50:08.258208","MEAN_MOTION":14.39772557,"ECCENTRICITY":0.000765,"INCLINATION":98.4496,"RA_OF_ASC_NODE":140.3073,"ARG_OF_PERICENTER":136.0582,"MEAN_ANOMALY":335.162,"EPHEMERIS_TYPE":0,"CLASSIFICATION_TYPE":"U","NORAD_CAT_ID":23561,"ELEMENT_SET_NO":999,"REV_AT_EPOCH":61926,"BSTAR":0.00012901937,"MEAN_MOTION_DOT":3.61e-6,"MEAN_MOTION_DDOT":0}]
